BEIDOU-3 M2             
1 43002U 17069B   26084.30647881  .00000003  00000+0  00000+0 0  9990
2 43002  56.6199  65.8818 0010018 332.3985  27.5434  1.86230563 57030
BEIDOU-3 M7             
1 43107U 18003A   26086.73293402 -.00000036  00000+0  00000+0 0  9997
2 43107  54.3998 305.1552 0005123  76.2108 283.8848  1.86232322 55832
BEIDOU-3 M8             
1 43108U 18003B   26085.06782058 -.00000032  00000+0  00000+0 0  9999
2 43108  54.3941 305.1962 0002517 294.5900  65.4209  1.86230888 55813
BEIDOU-3 M4             
1 43207U 18018A   26086.58403439  .00000002  00000+0  00000+0 0  9992
2 43207  56.5822  65.8372 0007473 354.5630   5.4246  1.86230795 55220
BEIDOU-3 M3             
1 43208U 18018B   26079.67005220  .00000005  00000+0  00000+0 0  9994
2 43208  56.5746  66.0695 0010098 322.3953  37.5330  1.86230975 55090
BEIDOU-3 M9             
1 43245U 18029A   26086.33089382 -.00000030  00000+0  00000+0 0  9998
2 43245  54.2677 302.8109 0000991  53.0238 307.0215  1.86227949 54379
BEIDOU-3 M10            
1 43246U 18029B   26086.26566356 -.00000030  00000+0  00000+0 0  9992
2 43246  54.2656 302.8409 0005157  29.9252 330.1406  1.86228943 54359
BEIDOU-2 IGSO-7         
1 43539U 18057A   26086.63100478 -.00000168  00000+0  00000+0 0  9990
2 43539  55.1838 163.7722 0101772 237.2605 124.1194  1.00275701 28316
BEIDOU-3 M5             
1 43581U 18062A   26084.34199135 -.00000012  00000+0  00000+0 0  9995
2 43581  54.0854 185.1550 0003067 294.9354  65.0457  1.86228672 52079
BEIDOU-3 M6             
1 43582U 18062B   26085.81589207 -.00000034  00000+0  00000+0 0  9996
2 43582  54.0850 185.0939 0005446  35.9935 324.0504  1.86227640 52106
BEIDOU-3 M12            
1 43602U 18067A   26078.23687365  .00000026  00000+0  00000+0 0  9996
2 43602  54.1818 184.0904 0008431  38.9393 321.1247  1.86227949 51443
BEIDOU-3 M11            
1 43603U 18067B   26084.81520604 -.00000020  00000+0  00000+0 0  9995
2 43603  54.1779 183.8314 0004691  29.2398 330.7997  1.86227158 51590
BEIDOU-3 M13            
1 43622U 18072A   26087.45555266 -.00000003  00000+0  00000+0 0  9998
2 43622  56.5560  65.3217 0009123 312.6672  47.2493  1.86230907 51159
BEIDOU-3 M14            
1 43623U 18072B   26087.32100495 -.00000002  00000+0  00000+0 0  9994
2 43623  56.5577  65.3203 0006825 333.8606  26.0987  1.86230900 51146
BEIDOU-3 M16            
1 43647U 18078A   26085.86672380 -.00000029  00000+0  00000+0 0  9999
2 43647  54.1644 302.8718 0008443  34.6278 325.4630  1.86232240 50622
BEIDOU-3 M15            
1 43648U 18078B   26087.06993128 -.00000033  00000+0  00000+0 0  9995
2 43648  54.1588 302.8305 0005457  44.5310 315.5495  1.86232103 50662
BEIDOU-3 G1             
1 43683U 18085A   26087.92896718 -.00000296  00000+0  00000+0 0  9995
2 43683   2.8717  99.6104 0001565  22.6654 178.4615  1.00269317 27259
